{
  "type": "FeatureCollection",
  "features": [
    {
      "type": "Feature",
      "properties": {
        "norad_id": 59626,
        "name": "LEGION 2",
        "group": "resource",
        "lat": 17.203874804268285,
        "lon": -120.64942308590409,
        "alt_km": 520.7977575015475,
        "timestamp": "2025-12-08T05:48:08.705522+00:00",
        "meta_object_name": "LEGION 2",
        "meta_object_id": "2024-081B",
        "meta_epoch": "2025-12-07T22:45:10.465920",
        "meta_mean_motion": 15.16420321,
        "meta_eccentricity": 0.00059225,
        "meta_inclination": 97.522,
        "meta_ra_of_asc_node": 56.7146,
        "meta_arg_of_pericenter": 313.9338,
        "meta_mean_anomaly": 46.1406,
        "meta_ephemeris_type": 0,
        "meta_classification_type": "U",
        "meta_norad_cat_id": 59626,
        "meta_element_set_no": 999,
        "meta_rev_at_epoch": 8855,
        "meta_bstar": 0.00037432541,
        "meta_mean_motion_dot": 7.213e-05,
        "meta_mean_motion_ddot": 0,
        "tle_line1": "1 59626U 24081B   25341.94803780  .00007213  00000+0  37433-3 0  9992",
        "tle_line2": "2 59626  97.5220  56.7146 0005922 313.9338  46.1406 15.16420321 88554"
      },
      "geometry": {
        "type": "Point",
        "coordinates": [
          -120.64942308590409,
          17.203874804268285
        ]
      }
    },
    {
      "type": "Feature",
      "properties": {
        "norad_id": 60182,
        "name": "ALOS-4 (DAICHI-4)",
        "group": "resource",
        "lat": 56.67427639462884,
        "lon": 64.92515156028085,
        "alt_km": 624.8368760596968,
        "timestamp": "2025-12-08T05:48:08.705533+00:00",
        "meta_object_name": "ALOS-4 (DAICHI-4)",
        "meta_object_id": "2024-123A",
        "meta_epoch": "2025-12-07T21:25:38.691552",
        "meta_mean_motion": 14.79471569,
        "meta_eccentricity": 0.00013785,
        "meta_inclination": 97.923,
        "meta_ra_of_asc_node": 76.8092,
        "meta_arg_of_pericenter": 99.8522,
        "meta_mean_anomaly": 260.2845,
        "meta_ephemeris_type": 0,
        "meta_classification_type": "U",
        "meta_norad_cat_id": 60182,
        "meta_element_set_no": 999,
        "meta_rev_at_epoch": 7759,
        "meta_bstar": 0.00043996135,
        "meta_mean_motion_dot": 3.236e-05,
        "meta_mean_motion_ddot": 0,
        "tle_line1": "1 60182U 24123A   25341.89280893  .00003236  00000+0  43996-3 0  9998",
        "tle_line2": "2 60182  97.9230  76.8092 0001378  99.8522 260.2845 14.79471569 77593"
      },
      "geometry": {
        "type": "Point",
        "coordinates": [
          64.92515156028085,
          56.67427639462884
        ]
      }
    },
    {
      "type": "Feature",
      "properties": {
        "norad_id": 60452,
        "name": "LEGION 3",
        "group": "resource",
        "lat": -1.2303330512443116,
        "lon": 155.47461151558585,
        "alt_km": 509.2605816409441,
        "timestamp": "2025-12-08T05:48:08.705555+00:00",
        "meta_object_name": "LEGION 3",
        "meta_object_id": "2024-146A",
        "meta_epoch": "2025-12-07T21:05:45.121344",
        "meta_mean_motion": 15.1568329,
        "meta_eccentricity": 0.00143165,
        "meta_inclination": 45.0028,
        "meta_ra_of_asc_node": 336.1887,
        "meta_arg_of_pericenter": 172.0469,
        "meta_mean_anomaly": 188.0639,
        "meta_ephemeris_type": 0,
        "meta_classification_type": "U",
        "meta_norad_cat_id": 60452,
        "meta_element_set_no": 999,
        "meta_rev_at_epoch": 7299,
        "meta_bstar": 0.00037333076,
        "meta_mean_motion_dot": 6.985e-05,
        "meta_mean_motion_ddot": 0,
        "tle_line1": "1 60452U 24146A   25341.87899446  .00006985  00000+0  37333-3 0  9993",
        "tle_line2": "2 60452  45.0028 336.1887 0014316 172.0469 188.0639 15.15683290 72990"
      },
      "geometry": {
        "type": "Point",
        "coordinates": [
          155.47461151558585,
          -1.2303330512443116
        ]
      }
    },
    {
      "type": "Feature",
      "properties": {
        "norad_id": 60453,
        "name": "LEGION 4",
        "group": "resource",
        "lat": 1.8066162009988573,
        "lon": -115.82535984211357,
        "alt_km": 520.8204236395995,
        "timestamp": "2025-12-08T05:48:08.705567+00:00",
        "meta_object_name": "LEGION 4",
        "meta_object_id": "2024-146B",
        "meta_epoch": "2025-12-07T17:57:01.782720",
        "meta_mean_motion": 15.15747454,
        "meta_eccentricity": 0.00098821,
        "meta_inclination": 45.0389,
        "meta_ra_of_asc_node": 68.6278,
        "meta_arg_of_pericenter": 284.9914,
        "meta_mean_anomaly": 74.9871,
        "meta_ephemeris_type": 0,
        "meta_classification_type": "U",
        "meta_norad_cat_id": 60453,
        "meta_element_set_no": 999,
        "meta_rev_at_epoch": 7182,
        "meta_bstar": 0.00045449653,
        "meta_mean_motion_dot": 8.569e-05,
        "meta_mean_motion_ddot": 0,
        "tle_line1": "1 60453U 24146B   25341.74793730  .00008569  00000+0  45450-3 0  9998",
        "tle_line2": "2 60453  45.0389  68.6278 0009882 284.9914  74.9871 15.15747454 71827"
      },
      "geometry": {
        "type": "Point",
        "coordinates": [
          -115.82535984211357,
          1.8066162009988573
        ]
      }
    },
    {
      "type": "Feature",
      "properties": {
        "norad_id": 60989,
        "name": "SENTINEL-2C",
        "group": "resource",
        "lat": -66.51539809977555,
        "lon": -145.51561815346116,
        "alt_km": 796.9622963075162,
        "timestamp": "2025-12-08T05:48:08.705577+00:00",
        "meta_object_name": "SENTINEL-2C",
        "meta_object_id": "2024-157A",
        "meta_epoch": "2025-12-07T21:56:00.805344",
        "meta_mean_motion": 14.30814496,
        "meta_eccentricity": 0.00011744,
        "meta_inclination": 98.5687,
        "meta_ra_of_asc_node": 54.4659,
        "meta_arg_of_pericenter": 98.0485,
        "meta_mean_anomaly": 262.0831,
        "meta_ephemeris_type": 0,
        "meta_classification_type": "U",
        "meta_norad_cat_id": 60989,
        "meta_element_set_no": 999,
        "meta_rev_at_epoch": 6563,
        "meta_bstar": 0.00012451038,
        "meta_mean_motion_dot": 2.83e-06,
        "meta_mean_motion_ddot": 0,
        "tle_line1": "1 60989U 24157A   25341.91389821  .00000283  00000+0  12451-3 0  9995",
        "tle_line2": "2 60989  98.5687  54.4659 0001174  98.0485 262.0831 14.30814496 65639"
      },
      "geometry": {
        "type": "Point",
        "coordinates": [
          -145.51561815346116,
          -66.51539809977555
        ]
      }
    },
    {
      "type": "Feature",
      "properties": {
        "norad_id": 61735,
        "name": "IONOSFERA-M 1",
        "group": "resource",
        "lat": -72.43303326148632,
        "lon": -118.79789686792807,
        "alt_km": 823.6509365836782,
        "timestamp": "2025-12-08T05:48:08.705587+00:00",
        "meta_object_name": "IONOSFERA-M 1",
        "meta_object_id": "2024-199A",
        "meta_epoch": "2025-12-07T21:42:49.256064",
        "meta_mean_motion": 14.22712347,
        "meta_eccentricity": 0.00011883,
        "meta_inclination": 98.7414,
        "meta_ra_of_asc_node": 211.7899,
        "meta_arg_of_pericenter": 28.5865,
        "meta_mean_anomaly": 331.5378,
        "meta_ephemeris_type": 0,
        "meta_classification_type": "U",
        "meta_norad_cat_id": 61735,
        "meta_element_set_no": 999,
        "meta_rev_at_epoch": 10050,
        "meta_bstar": 8.1865768e-05,
        "meta_mean_motion_dot": 1.39e-06,
        "meta_mean_motion_ddot": 0,
        "tle_line1": "1 61735U 24199A   25341.90473676  .00000139  00000+0  81866-4 0  9999",
        "tle_line2": "2 61735  98.7414 211.7899 0001188  28.5865 331.5378 14.22712347100505"
      },
      "geometry": {
        "type": "Point",
        "coordinates": [
          -118.79789686792807,
          -72.43303326148632
        ]
      }
    },
    {
      "type": "Feature",
      "properties": {
        "norad_id": 61736,
        "name": "IONOSFERA-M 2",
        "group": "resource",
        "lat": 70.05035460326937,
        "lon": 57.1162479269767,
        "alt_km": 808.2814415804287,
        "timestamp": "2025-12-08T05:48:08.705597+00:00",
        "meta_object_name": "IONOSFERA-M 2",
        "meta_object_id": "2024-199B",
        "meta_epoch": "2025-12-07T22:32:43.256256",
        "meta_mean_motion": 14.22714468,
        "meta_eccentricity": 0.00015285,
        "meta_inclination": 98.7412,
        "meta_ra_of_asc_node": 211.7369,
        "meta_arg_of_pericenter": 116.3921,
        "meta_mean_anomaly": 243.7413,
        "meta_ephemeris_type": 0,
        "meta_classification_type": "U",
        "meta_norad_cat_id": 61736,
        "meta_element_set_no": 999,
        "meta_rev_at_epoch": 10363,
        "meta_bstar": 7.982525e-05,
        "meta_mean_motion_dot": 1.35e-06,
        "meta_mean_motion_ddot": 0,
        "tle_line1": "1 61736U 24199B   25341.93938954  .00000135  00000+0  79825-4 0  9996",
        "tle_line2": "2 61736  98.7412 211.7369 0001528 116.3921 243.7413 14.22714468103630"
      },
      "geometry": {
        "type": "Point",
        "coordinates": [
          57.1162479269767,
          70.05035460326937
        ]
      }
    }
  ]
}